STARLINK-36543          
1 67515U 26012Y   26043.50002314 -.01911788  00000+0 -38797-1 0  9996
2 67515  42.9999  97.2100 0001220 277.7302  60.8546 15.48708484  4967
STARLINK-36537          
1 67516U 26012Z   26043.50002314 -.01901893  00000+0 -38447-1 0  9995
2 67516  43.0001  97.0405 0001588 284.1614 122.6115 15.48797826  4962
STARLINK-36544          
1 67517U 26012AA  26043.50002314 -.01845260  00000+0 -39685-1 0  9996
2 67517  43.0002  97.0092 0001506 280.6437 139.5073 15.46944814  5027
STARLINK-36412          
1 67518U 26012AB  26043.50002314 -.00524762  00000+0 -94962-2 0  9997
2 67518  43.0002  96.9855 0000845 285.5753 142.7661 15.50748960  4963
STARLINK-36415          
1 67519U 26012AC  26043.50002314  .00054233  00000+0  92489-3 0  9990
2 67519  42.9999  96.9550 0001639 289.4066 150.7966 15.50547270  5173
STARLINK-36547          
1 67520U 26012AD  26043.50002314 -.01296379  00000+0 -24113-1 0  9991
2 67520  43.0000  97.0082 0001598 299.4815 119.3409 15.50951473  4962
STARLINK-36444          
1 67521U 26012AE  26043.50002314 -.00008052  00000+0 -13149-3 0  9999
2 67521  43.0000  97.1350 0001013 302.8832  65.1089 15.50596173  4966
HULIANWANG DIGUI-146    
1 67522U 26013A   26042.34729179 -.00000041  00000+0  98639-4 0  9994
2 67522  50.0087  93.2680 0003231 354.9738   5.1123 13.78804724  3212
HULIANWANG DIGUI-147    
1 67523U 26013B   26043.07076712 -.00000042  00000+0  98544-4 0  9990
2 67523  50.0049  90.4143 0001427  24.4462 335.6498 13.78106281  3312
HULIANWANG DIGUI-148    
1 67524U 26013C   26042.63100185 -.00000027  00000+0  11318-3 0  9990
2 67524  50.0089  92.0945 0000669  68.0195 292.0769 13.78557366  3253
HULIANWANG DIGUI-149    
1 67525U 26013D   26042.62750824 -.00000031  00000+0  10788-3 0  9996
2 67525  50.0066  92.0767 0002211  45.1613 314.9460 13.79047719  3256
HULIANWANG DIGUI-150    
1 67526U 26013E   26042.76565202 -.00000036  00000+0  10353-3 0  9999
2 67526  50.0132  91.4490 0002976 205.9839 154.0905 13.79114508  3293
