CCSDS_OMM_VERS = 2.0
CREATION_DATE  = 
ORIGINATOR     = 

OBJECT_NAME    = STARLINK-36543
OBJECT_ID      = 2026-012Y
CENTER_NAME    = EARTH
REF_FRAME      = TEME
TIME_SYSTEM    = UTC
MEAN_ELEMENT_THEORY = SGP/SGP4

EPOCH          = 2026-02-12T12:00:01.999296
MEAN_MOTION    = 15.48708484
ECCENTRICITY   = .000122
INCLINATION    = 42.9999
RA_OF_ASC_NODE = 97.2100
ARG_OF_PERICENTER = 277.7302
MEAN_ANOMALY   = 60.8546

EPHEMERIS_TYPE = 0
CLASSIFICATION_TYPE = U
NORAD_CAT_ID   = 67515
ELEMENT_SET_NO = 999
REV_AT_EPOCH   = 496
BSTAR          = -.38797E-1
MEAN_MOTION_DOT = -.1911788E-1
MEAN_MOTION_DDOT = 0

CCSDS_OMM_VERS = 2.0
CREATION_DATE  = 
ORIGINATOR     = 

OBJECT_NAME    = STARLINK-36537
OBJECT_ID      = 2026-012Z
CENTER_NAME    = EARTH
REF_FRAME      = TEME
TIME_SYSTEM    = UTC
MEAN_ELEMENT_THEORY = SGP/SGP4

EPOCH          = 2026-02-12T12:00:01.999296
MEAN_MOTION    = 15.48797826
ECCENTRICITY   = .0001588
INCLINATION    = 43.0001
RA_OF_ASC_NODE = 97.0405
ARG_OF_PERICENTER = 284.1614
MEAN_ANOMALY   = 122.6115

EPHEMERIS_TYPE = 0
CLASSIFICATION_TYPE = U
NORAD_CAT_ID   = 67516
ELEMENT_SET_NO = 999
REV_AT_EPOCH   = 496
BSTAR          = -.38447E-1
MEAN_MOTION_DOT = -.1901893E-1
MEAN_MOTION_DDOT = 0

CCSDS_OMM_VERS = 2.0
CREATION_DATE  = 
ORIGINATOR     = 

OBJECT_NAME    = STARLINK-36544
OBJECT_ID      = 2026-012AA
CENTER_NAME    = EARTH
REF_FRAME      = TEME
TIME_SYSTEM    = UTC
MEAN_ELEMENT_THEORY = SGP/SGP4

EPOCH          = 2026-02-12T12:00:01.999296
MEAN_MOTION    = 15.46944814
ECCENTRICITY   = .0001506
INCLINATION    = 43.0002
RA_OF_ASC_NODE = 97.0092
ARG_OF_PERICENTER = 280.6437
MEAN_ANOMALY   = 139.5073

EPHEMERIS_TYPE = 0
CLASSIFICATION_TYPE = U
NORAD_CAT_ID   = 67517
ELEMENT_SET_NO = 999
REV_AT_EPOCH   = 502
BSTAR          = -.39685E-1
MEAN_MOTION_DOT = -.184526E-1
MEAN_MOTION_DDOT = 0

CCSDS_OMM_VERS = 2.0
CREATION_DATE  = 
ORIGINATOR     = 

OBJECT_NAME    = STARLINK-36412
OBJECT_ID      = 2026-012AB
CENTER_NAME    = EARTH
REF_FRAME      = TEME
TIME_SYSTEM    = UTC
MEAN_ELEMENT_THEORY = SGP/SGP4

EPOCH          = 2026-02-12T12:00:01.999296
MEAN_MOTION    = 15.50748960
ECCENTRICITY   = .0000845
INCLINATION    = 43.0002
RA_OF_ASC_NODE = 96.9855
ARG_OF_PERICENTER = 285.5753
MEAN_ANOMALY   = 142.7661

EPHEMERIS_TYPE = 0
CLASSIFICATION_TYPE = U
NORAD_CAT_ID   = 67518
ELEMENT_SET_NO = 999
REV_AT_EPOCH   = 496
BSTAR          = -.94962E-2
MEAN_MOTION_DOT = -.524762E-2
MEAN_MOTION_DDOT = 0

CCSDS_OMM_VERS = 2.0
CREATION_DATE  = 
ORIGINATOR     = 

OBJECT_NAME    = STARLINK-36415
OBJECT_ID      = 2026-012AC
CENTER_NAME    = EARTH
REF_FRAME      = TEME
TIME_SYSTEM    = UTC
MEAN_ELEMENT_THEORY = SGP/SGP4

EPOCH          = 2026-02-12T12:00:01.999296
MEAN_MOTION    = 15.50547270
ECCENTRICITY   = .0001639
INCLINATION    = 42.9999
RA_OF_ASC_NODE = 96.9550
ARG_OF_PERICENTER = 289.4066
MEAN_ANOMALY   = 150.7966

EPHEMERIS_TYPE = 0
CLASSIFICATION_TYPE = U
NORAD_CAT_ID   = 67519
ELEMENT_SET_NO = 999
REV_AT_EPOCH   = 517
BSTAR          = .92489E-3
MEAN_MOTION_DOT = .54233E-3
MEAN_MOTION_DDOT = 0

CCSDS_OMM_VERS = 2.0
CREATION_DATE  = 
ORIGINATOR     = 

OBJECT_NAME    = STARLINK-36547
OBJECT_ID      = 2026-012AD
CENTER_NAME    = EARTH
REF_FRAME      = TEME
TIME_SYSTEM    = UTC
MEAN_ELEMENT_THEORY = SGP/SGP4

EPOCH          = 2026-02-12T12:00:01.999296
MEAN_MOTION    = 15.50951473
ECCENTRICITY   = .0001598
INCLINATION    = 43.0000
RA_OF_ASC_NODE = 97.0082
ARG_OF_PERICENTER = 299.4815
MEAN_ANOMALY   = 119.3409

EPHEMERIS_TYPE = 0
CLASSIFICATION_TYPE = U
NORAD_CAT_ID   = 67520
ELEMENT_SET_NO = 999
REV_AT_EPOCH   = 496
BSTAR          = -.24113E-1
MEAN_MOTION_DOT = -.1296379E-1
MEAN_MOTION_DDOT = 0

CCSDS_OMM_VERS = 2.0
CREATION_DATE  = 
ORIGINATOR     = 

OBJECT_NAME    = STARLINK-36444
OBJECT_ID      = 2026-012AE
CENTER_NAME    = EARTH
REF_FRAME      = TEME
TIME_SYSTEM    = UTC
MEAN_ELEMENT_THEORY = SGP/SGP4

EPOCH          = 2026-02-12T12:00:01.999296
MEAN_MOTION    = 15.50596173
ECCENTRICITY   = .0001013
INCLINATION    = 43.0000
RA_OF_ASC_NODE = 97.1350
ARG_OF_PERICENTER = 302.8832
MEAN_ANOMALY   = 65.1089

EPHEMERIS_TYPE = 0
CLASSIFICATION_TYPE = U
NORAD_CAT_ID   = 67521
ELEMENT_SET_NO = 999
REV_AT_EPOCH   = 496
BSTAR          = -.13149E-3
MEAN_MOTION_DOT = -.8052E-4
MEAN_MOTION_DDOT = 0

CCSDS_OMM_VERS = 2.0
CREATION_DATE  = 
ORIGINATOR     = 

OBJECT_NAME    = HULIANWANG DIGUI-146
OBJECT_ID      = 2026-013A
CENTER_NAME    = EARTH
REF_FRAME      = TEME
TIME_SYSTEM    = UTC
MEAN_ELEMENT_THEORY = SGP/SGP4

EPOCH          = 2026-02-11T08:20:06.010656
MEAN_MOTION    = 13.78804724
ECCENTRICITY   = .00032318
INCLINATION    = 50.0087
RA_OF_ASC_NODE = 93.2680
ARG_OF_PERICENTER = 354.9738
MEAN_ANOMALY   = 5.1123

EPHEMERIS_TYPE = 0
CLASSIFICATION_TYPE = U
NORAD_CAT_ID   = 67522
ELEMENT_SET_NO = 999
REV_AT_EPOCH   = 321
BSTAR          = .98638908E-4
MEAN_MOTION_DOT = -.41E-6
MEAN_MOTION_DDOT = 0

CCSDS_OMM_VERS = 2.0
CREATION_DATE  = 
ORIGINATOR     = 

OBJECT_NAME    = HULIANWANG DIGUI-147
OBJECT_ID      = 2026-013B
CENTER_NAME    = EARTH
REF_FRAME      = TEME
TIME_SYSTEM    = UTC
MEAN_ELEMENT_THEORY = SGP/SGP4

EPOCH          = 2026-02-12T01:41:54.279168
MEAN_MOTION    = 13.78106281
ECCENTRICITY   = .00014279
INCLINATION    = 50.0049
RA_OF_ASC_NODE = 90.4143
ARG_OF_PERICENTER = 24.4462
MEAN_ANOMALY   = 335.6498

EPHEMERIS_TYPE = 0
CLASSIFICATION_TYPE = U
NORAD_CAT_ID   = 67523
ELEMENT_SET_NO = 999
REV_AT_EPOCH   = 331
BSTAR          = .98544429E-4
MEAN_MOTION_DOT = -.42E-6
MEAN_MOTION_DDOT = 0

CCSDS_OMM_VERS = 2.0
CREATION_DATE  = 
ORIGINATOR     = 

OBJECT_NAME    = HULIANWANG DIGUI-148
OBJECT_ID      = 2026-013C
CENTER_NAME    = EARTH
REF_FRAME      = TEME
TIME_SYSTEM    = UTC
MEAN_ELEMENT_THEORY = SGP/SGP4

EPOCH          = 2026-02-11T15:08:38.559840
MEAN_MOTION    = 13.78557366
ECCENTRICITY   = .00006698
INCLINATION    = 50.0089
RA_OF_ASC_NODE = 92.0945
ARG_OF_PERICENTER = 68.0195
MEAN_ANOMALY   = 292.0769

EPHEMERIS_TYPE = 0
CLASSIFICATION_TYPE = U
NORAD_CAT_ID   = 67524
ELEMENT_SET_NO = 999
REV_AT_EPOCH   = 325
BSTAR          = .11317971E-3
MEAN_MOTION_DOT = -.27E-6
MEAN_MOTION_DDOT = 0

CCSDS_OMM_VERS = 2.0
CREATION_DATE  = 
ORIGINATOR     = 

OBJECT_NAME    = HULIANWANG DIGUI-149
OBJECT_ID      = 2026-013D
CENTER_NAME    = EARTH
REF_FRAME      = TEME
TIME_SYSTEM    = UTC
MEAN_ELEMENT_THEORY = SGP/SGP4

EPOCH          = 2026-02-11T15:03:36.711936
MEAN_MOTION    = 13.79047719
ECCENTRICITY   = .00022116
INCLINATION    = 50.0066
RA_OF_ASC_NODE = 92.0767
ARG_OF_PERICENTER = 45.1613
MEAN_ANOMALY   = 314.9460

EPHEMERIS_TYPE = 0
CLASSIFICATION_TYPE = U
NORAD_CAT_ID   = 67525
ELEMENT_SET_NO = 999
REV_AT_EPOCH   = 325
BSTAR          = .10787952E-3
MEAN_MOTION_DOT = -.31E-6
MEAN_MOTION_DDOT = 0

CCSDS_OMM_VERS = 2.0
CREATION_DATE  = 
ORIGINATOR     = 

OBJECT_NAME    = HULIANWANG DIGUI-150
OBJECT_ID      = 2026-013E
CENTER_NAME    = EARTH
REF_FRAME      = TEME
TIME_SYSTEM    = UTC
MEAN_ELEMENT_THEORY = SGP/SGP4

EPOCH          = 2026-02-11T18:22:32.334528
MEAN_MOTION    = 13.79114508
ECCENTRICITY   = .00029763
INCLINATION    = 50.0132
RA_OF_ASC_NODE = 91.4490
ARG_OF_PERICENTER = 205.9839
MEAN_ANOMALY   = 154.0905

EPHEMERIS_TYPE = 0
CLASSIFICATION_TYPE = U
NORAD_CAT_ID   = 67526
ELEMENT_SET_NO = 999
REV_AT_EPOCH   = 329
BSTAR          = .10353359E-3
MEAN_MOTION_DOT = -.36E-6
MEAN_MOTION_DDOT = 0

